#cP2017  6 11  0  0  0.00000000      96 ORBIT IGS14 HLM  IGS
## 1953      0.00000000   900.00000000 57915 0.0000000000000
+   32   G01G02G03G04G05G06G07G08G09G10G11G12G13G14G15G16G17
+        G18G19G20G21G22G23G24G25G26G27G28G29G30G31G32  0  0
+          0  0  0  0  0  0  0  0  0  0  0  0  0  0  0  0  0
+          0  0  0  0  0  0  0  0  0  0  0  0  0  0  0  0  0
+          0  0  0  0  0  0  0  0  0  0  0  0  0  0  0  0  0
++         2  2  2  0  2  2  2  2  2  2  2  2  2  2  2  2  2
++         2  2  2  2  2  2  3  2  2  2  2  2  2  2  2  0  0
++         0  0  0  0  0  0  0  0  0  0  0  0  0  0  0  0  0
++         0  0  0  0  0  0  0  0  0  0  0  0  0  0  0  0  0
++         0  0  0  0  0  0  0  0  0  0  0  0  0  0  0  0  0
%c G  cc GPS ccc cccc cccc cccc cccc ccccc ccccc ccccc ccccc
%c cc cc ccc ccc cccc cccc cccc cccc ccccc ccccc ccccc ccccc
%f  1.2500000  1.025000000  0.00000000000  0.000000000000000
%f  0.0000000  0.000000000  0.00000000000  0.000000000000000
%i    0    0    0    0      0      0      0      0         0
%i    0    0    0    0      0      0      0      0         0
/* RAPID ORBIT COMBINATION FROM WEIGHTED AVERAGE OF:        
/* cod emr esa gfz jpl ngs sio usn whu                      
/* REFERENCED TO IGS TIME (IGST) AND TO WEIGHTED MEAN POLE: 
/* PCV:IGS14_1930 OL/AL:FES2004  NONE     Y  ORB:CMB CLK:CMB
*  2017  6 11 15 45  0.00000000
PG01   8481.402784 -19451.561483 -15913.638848     55.768605  8  3  6 107       
PG02 -21369.360530  15305.576538  -1799.219546    400.668292  5  8  4 106       
PG03  -2578.611167 -16849.295020 -20379.905806    -95.400718  7  7  8  90       
PG04  24140.713446  -8862.795117  -4865.613648 999999.999999
PG05 -18294.218767   6362.058632  18179.779045    -41.929314  6  7  6  75       
PG06 -21499.403150   2452.063020 -15391.748634    362.999290  4  3  2 102       
PG07  -6174.363424 -14141.898011  21761.786504    340.998679  7  8  7  97       
PG08   6850.218008 -21908.352161  13326.383251    -62.793094  8  8  7  87       
PG09  -8320.628293 -23912.724176   7980.681904    382.534650  6  5  5 101       
PG10  24468.235478  10473.050685   -646.786134    -28.189907  6  5  6  67       
PG11   8255.874469 -24386.037753  -7227.594924   -694.582653  5  5  6 107       
PG12  -3523.875260  14574.145185 -22107.224444    381.610997  7 10  7 109       
PG13 -12136.161502  16003.227629  17289.407600    -84.981250  4  7  4  93       
PG14  15056.784039   1790.717177 -21539.858075    -73.997113  6  8  6  99       
PG15  -2823.889111  24461.022761   9296.934064   -351.541775  8  9  7  83       
PG16  19102.877115  -3185.207099  18228.331932     34.700298  8  9  7 102       
PG17 -13460.222926 -12111.472429 -19128.833075   -175.248684  8  4  4  89       
PG18  20003.623326  15393.315307   9167.200395    619.593523  7  7  7  72       
PG19 -14898.988477  -2657.161474 -22083.889439   -500.146685  8  8  6 106       
PG20  -2663.423808  15790.755610  21046.839049    475.724201  4  7  4  18       
PG21  11989.229420  10881.488616  21851.774570   -501.539350  5  5  4  91       
PG22   7850.617212 -13937.923712 -20959.573810    -19.244154  7  5  5 104       
PG23  -1103.892645 -26168.113669  -2362.291843   -213.386478  9 10  7  97       
PG24 -10384.043731  20292.138420 -13515.392857    -36.071444  5  8  8 104       
PG25  11265.001690  17545.221176 -16730.271689   -403.005492  7  7  3  80       
PG26  24366.860947   2736.276168  10313.755016   -492.483379  2  8  6  94       
PG27  12670.956026 -11296.596241  20311.833932    273.895238  8  7  7 100       
PG28 -22076.667315 -14556.080842   3072.003050    620.132209  6  9  6  86       
PG29   4760.037740  25549.225459   5544.616119    596.028562  4  5  7  84       
PG30 -17408.983222  -5434.786488  19353.062192    154.260248  4  5  4  95       
PG31  22652.711459  -3938.688858 -13564.135315    195.353523  5  7  4  93       
PG32  14950.230572   9714.307242 -19681.260851   -437.607070  5  6  6  83       
*  2017  6 11 16  0  0.00000000
PG01   9939.556858 -20326.687826 -13797.572989     55.768972  8  4  6 104       
PG02 -21251.977177  14784.819872  -4613.716009    400.660934  5  8  4  92       
PG03   -353.075336 -16007.478509 -21199.048332    -95.398517  7  7  8  91       
PG04  23578.897604  -8291.793567  -7684.493452 999999.999999
PG05 -20091.369872   5475.563474  16520.799499    -41.928177  5  7  5  66       
PG06 -20114.349491   1183.628712 -17292.216195    363.003785  4  4    102       
PG07  -4183.585384 -15532.663551  21238.696547    340.994982  8  9  8  97       
PG08   7263.883163 -20307.549167  15485.206689    -62.794259  7  8  7  89       
PG09  -8166.562994 -24704.573961   5275.893139    382.541931  6  5  5 104       
PG10  24294.670223  10672.069103   2198.026814    -28.179534  5  5  5  70       
PG11   8903.402250 -24731.107843  -4610.136747   -694.584737  5  5  6 121       
PG12  -5773.426132  13491.619192 -22304.405404    381.610414  7 11  7  95       
PG13 -12297.737894  13918.179916  18890.518890    -84.982915  4  6  4  89       
PG14  15162.359616   4286.968577 -21129.744807    -73.998388  6  7  6 102       
PG15  -3397.629733  23310.550844  11735.382948   -351.542531  7  9  6  68       
PG16  20834.447731  -2207.056135  16434.357077     34.700736  7  9  6  95       
PG17 -13532.157193 -14270.203707 -17567.910808   -175.246700  8  4  5  80       
PG18  18860.213186  15283.932409  11590.812734    619.594973  7  7  6  87       
PG19 -14944.247480  -5095.426849 -21590.452163   -500.145607  8  7  6 102       
PG20  -5016.805643  15087.784417  21131.658073    475.725115  4  8  4  88       
PG21  10188.662345  12388.855738  21956.844518   -501.537096  6  5  3  89       
PG22  10128.156446 -13061.381257 -20553.086645    -19.255017  7  6  5 103       
PG23   -708.206878 -25755.102365  -5165.988628   -213.387091  9 10  7  90       
PG24 -11639.031630  20990.394712 -11192.482051    -36.072342  5  7  8 128       
PG25   9398.321131  16888.623681 -18465.041794   -403.011345  7  7  2  64       
PG26  25238.789772   3333.175141   7724.881476   -492.478321  2  8  6 107       
PG27  13072.128860  -8939.901855  21227.962028    273.901507  7  6  6  94       
PG28 -21606.951661 -14503.648252   5921.853277    620.135047  5  8  5  73       
PG29   4604.436050  26033.513164   2701.160987    596.025240  5  7  7  87       
PG30 -15583.583298  -6800.499932  20434.169187    154.259086  5  4  4  87       
PG31  21388.525649  -2838.740959 -15678.287084    195.351332  4  6  5 103       
PG32  15127.559173  11887.895878 -18311.252076   -437.615539  5  6  6  64       
*  2017  6 11 16 15  0.00000000
PG01  11158.881407 -21112.671893 -11442.499708     55.769329  8  3  5 100       
PG02 -20932.104571  14036.468353  -7346.357092    400.653950  4  9  4 102       
PG03   1981.560720 -15258.651001 -21653.670299    -95.396296  7  8  8 104       
PG04  22781.200111  -7517.411427 -10364.773392 999999.999999
PG05 -21735.929818   4744.699870  14578.190345    -41.926767  5  7  5  84       
PG06 -18649.003409   -287.458530 -18894.836349    363.008217  5  4    103       
PG07  -2325.832797 -16978.059104  20353.550746    340.990708  7  9  8  76       
PG08   7807.085315 -18506.726934  17377.272011    -62.795381  7  8  7  75       
PG09  -7991.196456 -25198.091135   2480.181519    382.549230  6  5  5 111       
PG10  23829.993662  10776.397784   5005.290876    -28.169164  5  6  5  50       
PG11   9408.212860 -24838.126100  -1914.491678   -694.587277  5  6  6 110       
PG12  -8083.705830  12538.008522 -22123.752969    381.609340  7 11  7 105       
PG13 -12582.784581  11680.713408  20164.033720    -84.983835  5  6  4  88       
PG14  15388.842057   6704.295174 -20347.644585    -73.999482  6  7  7  94       
PG15  -4092.106383  21930.883829  13966.254034   -351.543191  7  8  6  79       
PG16  22415.533940  -1418.360469  14359.685999     34.701200  7  9  6 100       
PG17 -13694.358706 -16223.761485 -15698.094085   -175.245280  7  5  5  81       
PG18  17469.316535  15153.371935  13822.436845    619.596396  7  7  6  97       
PG19 -15117.061824  -7455.296997 -20733.258673   -500.144260  7  7  6  73       
PG20  -7389.244386  14496.996684  20848.125615    475.726453  4  8  3 105       
PG21   8472.093631  13981.740209  21709.763917   -501.535393  5  5  3  76       
PG22  12378.157332 -12308.791081 -19785.434964    -19.266030  7  7  6  93       
PG23   -229.628367 -25052.087850  -7877.862330   -213.387765  8 10  7  94       
PG24 -12658.200253  21563.550306  -8675.268263    -36.073724  4  7  8 132       
PG25   7329.918684  16277.843999 -19888.075280   -403.017221  7  7  2 100       
PG26  25855.740414   3789.403663   5003.708090   -492.473229  1  8  7  92       
PG27  13615.792386  -6528.417310  21775.698591    273.907805  7  6  6  87       
PG28 -20849.471570 -14347.940958   8671.298201    620.137584  5  8  4  63       
PG29   4432.423955  26203.458370   -188.709661    596.021586  4  7  8  79       
PG30 -13747.018256  -8319.277422  21164.555972    154.257955  5  5  5  72       
PG31  20010.763525  -1529.083555 -17525.947703    195.349133  3  6  5  81       
PG32  15383.087054  13879.374512 -16626.155274   -437.624029  5  5  7  67       
EOF
